NORAD_CAT_ID,OBJECT_NAME,OBJECT_TYPE,EPOCH,MEAN_MOTION,ECCENTRICITY,INCLINATION,RA_OF_ASC_NODE,ARG_OF_PERICENTER,MEAN_ANOMALY,BSTAR,MEAN_MOTION_DOT,MEAN_MOTION_DDOT,TLE_LINE0,TLE_LINE1,TLE_LINE2,SEMIMAJOR_AXIS,PERIOD,APOGEE,PERIGEE,DECAYED
53776.0,STARLINK-4708,PAYLOAD,2023-11-16 20:34:59,15.08833504,7.73e-05,53.2222,107.3955,70.5145,289.5931,2.5929e-05,1.25e-06,0.0,0 STARLINK-4708,1 53776U 22111D   23320.85763347  .00000125  00000-0  25929-4 0  9997,2 53776  53.2222 107.3955 0000773  70.5145 289.5931 15.08833504 66517,6917.9,95.438,540.3,539.23,0.0
53776.0,STARLINK-4708,PAYLOAD,2023-11-17 02:56:32,15.08832154,9.96e-05,53.2174,106.205,89.3094,270.8012,1.4685e-05,-5.4e-07,0.0,0 STARLINK-4708,1 53776U 22111D   23321.12259610 -.00000054  00000-0  14685-4 0  9990,2 53776  53.2174 106.2050 0000996  89.3094 270.8012 15.08832154 65461,6917.904,95.438,540.458,539.08,0.0
53776.0,STARLINK-4708,PAYLOAD,2023-11-17 18:50:23,15.08836121,9e-05,53.2166,103.231,89.4075,270.7021,3.1295e-05,2.1e-06,0.0,0 STARLINK-4708,1 53776U 22111D   23321.78499485  .00000210  00000-0  31295-4 0  9997,2 53776  53.2166 103.2310 0000900  89.4075 270.7021 15.08836121 66652,6917.892,95.438,540.38,539.135,0.0
53776.0,STARLINK-4708,PAYLOAD,2023-11-18 18:41:10,15.08841812,0.0001134,53.2178,98.7686,84.8989,275.2133,4.5422e-05,4.35e-06,0.0,0 STARLINK-4708,1 53776U 22111D   23322.77859217  .00000435  00000-0  45422-4 0  9996,2 53776  53.2178  98.7686 0001134  84.8989 275.2133 15.08841812 65715,6917.875,95.437,540.524,538.955,0.0
53776.0,STARLINK-4708,PAYLOAD,2023-11-19 13:45:48,15.08838267,0.0001242,53.2165,95.2006,84.346,275.7673,3.5855e-06,-2.31e-06,0.0,0 STARLINK-4708,1 53776U 22111D   23323.57347581 -.00000231  00000-0  35855-5 0  9996,2 53776  53.2165  95.2006 0001242  84.3460 275.7673 15.08838267 66926,6917.886,95.438,540.61,538.891,0.0
53776.0,STARLINK-4708,PAYLOAD,2023-11-19 15:21:11,15.08838172,0.0001233,53.216,94.9033,85.6958,274.4175,5.65e-06,-1.98e-06,0.0,0 STARLINK-4708,1 53776U 22111D   23323.63971570 -.00000198  00000-0  56500-5 0  9996,2 53776  53.2160  94.9033 0001233  85.6958 274.4175 15.08838172 66932,6917.886,95.438,540.604,538.898,0.0
53776.0,STARLINK-4708,PAYLOAD,2023-11-20 13:36:34,15.08844178,0.0001231,53.2178,90.7399,88.4952,271.6181,3.125e-05,2.1e-06,0.0,0 STARLINK-4708,1 53776U 22111D   23324.56706939  .00000210  00000-0  31250-4 0  9992,2 53776  53.2178  90.7399 0001231  88.4952 271.6181 15.08844178 67078,6917.868,95.437,540.584,538.881,0.0
53776.0,STARLINK-4708,PAYLOAD,2023-11-20 15:11:57,15.08843954,0.0001219,53.2177,90.4428,86.2123,273.9009,2.7591e-05,1.51e-06,0.0,0 STARLINK-4708,1 53776U 22111D   23324.63330954  .00000151  00000-0  27591-4 0  9997,2 53776  53.2177  90.4428 0001219  86.2123 273.9009 15.08843954 65993,6917.868,95.437,540.577,538.89,0.0
53776.0,STARLINK-4708,PAYLOAD,2023-11-20 19:58:07,15.08845006,0.0001227,53.2176,89.5506,85.954,274.1592,3.7157e-05,3.04e-06,0.0,0 STARLINK-4708,1 53776U 22111D   23324.83202781  .00000304  00000-0  37157-4 0  9994,2 53776  53.2176  89.5506 0001227  85.9540 274.1592 15.08845006 67112,6917.865,95.437,540.579,538.881,0.0
53776.0,STARLINK-4708,PAYLOAD,2023-11-21 08:41:12,15.0883547,0.0001232,53.2176,87.172,85.5368,274.5765,-1.8072e-05,-5.75e-06,0.0,0 STARLINK-4708,1 53776U 22111D   23325.36195551 -.00000575  00000-0 -18072-4 0  9996,2 53776  53.2176  87.1720 0001232  85.5368 274.5765 15.08835470 66102,6917.894,95.438,540.612,538.907,0.0
53776.0,STARLINK-4708,PAYLOAD,2023-11-21 13:27:22,15.08837015,0.0001233,53.2178,86.2801,85.3557,274.7576,-4.9848e-06,-3.67e-06,0.0,0 STARLINK-4708,1 53776U 22111D   23325.56067442 -.00000367  00000-0 -49848-5 0  9990,2 53776  53.2178  86.2801 0001233  85.3557 274.7576 15.08837015 67226,6917.89,95.438,540.607,538.902,0.0
53776.0,STARLINK-4708,PAYLOAD,2023-11-22 11:42:46,15.08834531,0.0001316,53.2176,82.1146,105.4481,254.6656,-7.2192e-05,-1.436e-05,0.0,0 STARLINK-4708,1 53776U 22111D   23326.48803939 -.00001436  00000-0 -72192-4 0  9996,2 53776  53.2176  82.1146 0001316 105.4481 254.6656 15.08834531 66273,6917.897,95.438,540.673,538.852,0.0
53776.0,STARLINK-4708,PAYLOAD,2023-11-22 13:18:09,15.08835979,0.000134,53.2178,81.8179,101.4701,258.6442,-6.4511e-05,-1.314e-05,0.0,0 STARLINK-4708,1 53776U 22111D   23326.55427868 -.00001314  00000-0 -64511-4 0  9998,2 53776  53.2178  81.8179 0001340 101.4701 258.6442 15.08835979 67371,6917.893,95.438,540.685,538.831,0.0
53776.0,STARLINK-4708,PAYLOAD,2023-11-22 14:53:32,15.08835848,0.0001233,53.2183,81.5231,85.6089,274.5044,-4.9306e-05,-1.072e-05,0.0,0 STARLINK-4708,1 53776U 22111D   23326.62051905 -.00001072  00000-0 -49306-4 0  9997,2 53776  53.2183  81.5231 0001233  85.6089 274.5044 15.08835848 67387,6917.893,95.438,540.611,538.905,0.0
53776.0,STARLINK-4708,PAYLOAD,2023-11-23 11:33:33,15.08839463,0.0001277,53.219,77.6581,92.2254,267.8885,5.4953e-05,5.87e-06,0.0,0 STARLINK-4708,1 53776U 22111D   23327.48163406  .00000587  00000-0  54953-4 0  9994,2 53776  53.2190  77.6581 0001277  92.2254 267.8885 15.08839463 66424,6917.882,95.438,540.63,538.864,0.0
53776.0,STARLINK-4708,PAYLOAD,2023-11-23 13:08:56,15.08840308,0.0001284,53.2188,77.3604,92.9768,267.1371,6.1068e-05,6.84e-06,0.0,0 STARLINK-4708,1 53776U 22111D   23327.54787327  .00000684  00000-0  61068-4 0  9998,2 53776  53.2188  77.3604 0001284  92.9768 267.1371 15.08840308 67524,6917.879,95.438,540.633,538.856,0.0
53776.0,STARLINK-4708,PAYLOAD,2023-11-24 11:24:20,15.08844624,0.0001111,53.2185,73.1986,96.1275,263.9844,-0.00014493,-2.594e-05,0.0,0 STARLINK-4708,1 53776U 22111D   23328.47524119 -.00002594  00000-0 -14493-3 0  9992,2 53776  53.2185  73.1986 0001111  96.1275 263.9844 15.08844624 66574,6917.866,95.437,540.5,538.963,0.0
53776.0,STARLINK-4708,PAYLOAD,2023-11-24 14:35:05,15.08914503,8.41e-05,53.2183,72.6025,107.9429,252.1655,-0.0010543,-0.00017062,0.0,0 STARLINK-4708,1 53776U 22111D   23328.60770826 -.00017062  00000-0 -10543-2 0  9992,2 53776  53.2183  72.6025 0000841 107.9429 252.1655 15.08914503 67688,6917.653,95.433,540.099,538.936,0.0
53776.0,STARLINK-4708,PAYLOAD,2023-11-24 16:10:30,15.08828166,0.0001207,53.2181,72.3034,92.7877,267.3253,6.6624e-05,7.72e-06,0.0,0 STARLINK-4708,1 53776U 22111D   23328.67396426  .00000772  00000-0  66624-4 0  9990,2 53776  53.2181  72.3034 0001207  92.7877 267.3253 15.08828166 66600,6917.917,95.438,540.617,538.947,0.0
53776.0,STARLINK-4708,PAYLOAD,2023-11-25 12:50:30,15.08842595,0.0001191,53.218,68.4382,89.6765,270.4364,3.2179e-05,2.24e-06,0.0,0 STARLINK-4708,1 53776U 22111D   23329.53507737  .00000224  00000-0  32179-4 0  9995,2 53776  53.2180  68.4382 0001191  89.6765 270.4364 15.08842595 67829,6917.872,95.437,540.561,538.914,0.0
53776.0,STARLINK-4708,PAYLOAD,2023-11-26 12:41:17,15.08842181,0.000123,53.2187,63.9777,83.1758,276.9374,7.5698e-05,9.17e-06,0.0,0 STARLINK-4708,1 53776U 22111D   23330.52867487  .00000917  00000-0  75698-4 0  9999,2 53776  53.2187  63.9777 0001230  83.1758 276.9374 15.08842181 67978,6917.874,95.437,540.59,538.888,0.0
53776.0,STARLINK-4708,PAYLOAD,2023-11-26 15:52:03,15.08843443,0.0001231,53.2187,63.3816,84.4156,275.6977,8.465e-05,1.06e-05,0.0,0 STARLINK-4708,1 53776U 22111D   23330.66115328  .00001060  00000-0  84650-4 0  9992,2 53776  53.2187  63.3816 0001231  84.4156 275.6977 15.08843443 66902,6917.87,95.437,540.586,538.883,0.0
53776.0,STARLINK-4708,PAYLOAD,2023-11-27 10:56:42,15.08833054,0.0001538,53.22,59.809,116.3917,243.7233,-8.9231e-05,-1.708e-05,0.0,0 STARLINK-4708,1 53776U 22111D   23331.45604554 -.00001708  00000-0 -89231-4 0  9995,2 53776  53.2200  59.8090 0001538 116.3917 243.7233 15.08833054 67024,6917.902,95.438,540.831,538.703,0.0
53776.0,STARLINK-4708,PAYLOAD,2023-11-27 12:32:05,15.08832976,0.0001513,53.2202,59.5114,116.2155,243.8992,-8.9917e-05,-1.718e-05,0.0,0 STARLINK-4708,1 53776U 22111D   23331.52228582 -.00001718  00000-0 -89917-4 0  9998,2 53776  53.2202  59.5114 0001513 116.2155 243.8992 15.08832976 68123,6917.902,95.438,540.814,538.72,0.0
53776.0,STARLINK-4708,PAYLOAD,2023-11-27 15:42:52,15.08830501,0.000158,53.2202,58.9194,116.1761,243.9393,-0.00010247,-1.918e-05,0.0,0 STARLINK-4708,1 53776U 22111D   23331.65476867 -.00001918  00000-0 -10247-3 0  9994,2 53776  53.2202  58.9194 0001580 116.1761 243.9393 15.08830501 68140,6917.909,95.438,540.867,538.681,0.0
53776.0,STARLINK-4708,PAYLOAD,2023-11-28 12:22:52,15.08838255,0.0001677,53.2203,55.0558,126.2719,233.8429,5.1246e-06,-2.06e-06,0.0,0 STARLINK-4708,1 53776U 22111D   23332.51588111 -.00000206  00000-0  51246-5 0  9990,2 53776  53.2203  55.0558 0001677 126.2719 233.8429 15.08838255 67180,6917.886,95.438,540.911,538.591,0.0
53776.0,STARLINK-4708,PAYLOAD,2023-11-29 12:13:39,15.0883808,0.0001213,53.2193,50.5979,101.0126,259.1003,0.00010379,1.364e-05,0.0,0 STARLINK-4708,1 53776U 22111D   23333.50948118  .00001364  00000-0  10379-3 0  9992,2 53776  53.2193  50.5979 0001213 101.0126 259.1003 15.08838080 68427,6917.886,95.438,540.59,538.912,0.0
53776.0,STARLINK-4708,PAYLOAD,2023-11-30 10:29:02,15.0885111,0.0001165,53.2199,46.4342,93.369,266.7435,8.6132e-05,1.084e-05,0.0,0 STARLINK-4708,1 53776U 22111D   23334.43683141  .00001084  00000-0  86132-4 0  9997,2 53776  53.2199  46.4342 0001165  93.3690 266.7435 15.08851110 67472,6917.846,95.437,540.517,538.906,0.0
53776.0,STARLINK-4708,PAYLOAD,2023-12-01 05:33:42,15.08825019,0.0001154,53.2199,42.8649,87.9597,272.1527,-0.00014671,-2.621e-05,0.0,0 STARLINK-4708,1 53776U 22111D   23335.23174032 -.00002621  00000-0 -14671-3 0  9998,2 53776  53.2199  42.8649 0001154  87.9597 272.1527 15.08825019 67590,6917.926,95.439,540.59,538.993,0.0
53776.0,STARLINK-4708,PAYLOAD,2023-12-01 10:19:52,15.08812992,0.0001339,53.2201,41.9744,91.5533,268.5613,-0.00023565,-4.033e-05,0.0,0 STARLINK-4708,1 53776U 22111D   23335.43047264 -.00004033  00000-0 -23565-3 0  9997,2 53776  53.2201  41.9744 0001339  91.5533 268.5613 15.08812992 67621,6917.963,95.439,540.754,538.902,0.0
